<?xml version="1.0" encoding="UTF-8"?>
<kml xmlns="http://www.opengis.net/kml/2.2">
  <Document>
    <name>Depok</name>
    <Style id="icon-1899-0288D1-nodesc-normal">
      <IconStyle>
        <color>ffd18802</color>
        <scale>1</scale>
        <Icon>
          <href>https://www.gstatic.com/mapspro/images/stock/503-wht-blank_maps.png</href>
        </Icon>
        <hotSpot x="32" xunits="pixels" y="64" yunits="insetPixels"/>
      </IconStyle>
      <LabelStyle>
        <scale>0</scale>
      </LabelStyle>
      <BalloonStyle>
        <text><![CDATA[<h3>$[name]</h3>]]></text>
      </BalloonStyle>
    </Style>
    <Style id="icon-1899-0288D1-nodesc-highlight">
      <IconStyle>
        <color>ffd18802</color>
        <scale>1</scale>
        <Icon>
          <href>https://www.gstatic.com/mapspro/images/stock/503-wht-blank_maps.png</href>
        </Icon>
        <hotSpot x="32" xunits="pixels" y="64" yunits="insetPixels"/>
      </IconStyle>
      <LabelStyle>
        <scale>1</scale>
      </LabelStyle>
      <BalloonStyle>
        <text><![CDATA[<h3>$[name]</h3>]]></text>
      </BalloonStyle>
    </Style>
    <StyleMap id="icon-1899-0288D1-nodesc">
      <Pair>
        <key>normal</key>
        <styleUrl>#icon-1899-0288D1-nodesc-normal</styleUrl>
      </Pair>
      <Pair>
        <key>highlight</key>
        <styleUrl>#icon-1899-0288D1-nodesc-highlight</styleUrl>
      </Pair>
    </StyleMap>
    <Style id="poly-000000-1200-77-nodesc-normal">
      <LineStyle>
        <color>ff000000</color>
        <width>1.2</width>
      </LineStyle>
      <PolyStyle>
        <color>4d000000</color>
        <fill>1</fill>
        <outline>1</outline>
      </PolyStyle>
      <BalloonStyle>
        <text><![CDATA[<h3>$[name]</h3>]]></text>
      </BalloonStyle>
    </Style>
    <Style id="poly-000000-1200-77-nodesc-highlight">
      <LineStyle>
        <color>ff000000</color>
        <width>1.8</width>
      </LineStyle>
      <PolyStyle>
        <color>4d000000</color>
        <fill>1</fill>
        <outline>1</outline>
      </PolyStyle>
      <BalloonStyle>
        <text><![CDATA[<h3>$[name]</h3>]]></text>
      </BalloonStyle>
    </Style>
    <StyleMap id="poly-000000-1200-77-nodesc">
      <Pair>
        <key>normal</key>
        <styleUrl>#poly-000000-1200-77-nodesc-normal</styleUrl>
      </Pair>
      <Pair>
        <key>highlight</key>
        <styleUrl>#poly-000000-1200-77-nodesc-highlight</styleUrl>
      </Pair>
    </StyleMap>
    <Placemark>
      <name>Depok</name>
      <styleUrl>#icon-1899-0288D1-nodesc</styleUrl>
      <Point>
        <coordinates>
          106.7942405,-6.4024844,0
        </coordinates>
      </Point>
    </Placemark>
    <Placemark>
      <name>Poligon 4</name>
      <styleUrl>#poly-000000-1200-77-nodesc</styleUrl>
      <Polygon>
        <outerBoundaryIs>
          <LinearRing>
            <tessellate>1</tessellate>
            <coordinates>
              106.7761454,-6.3068616,0
              106.7786776,-6.325838,0
              106.7698713,-6.3572373,0
              106.7643436,-6.3559435,0
              106.7495375,-6.3411396,0
              106.7456535,-6.3702479,0
              106.745546,-6.3853661,0
              106.7406317,-6.4038959,0
              106.7350306,-6.4094608,0
              106.7318966,-6.4246847,0
              106.7347927,-6.4340025,0
              106.7310909,-6.4458257,0
              106.729449,-6.4583312,0
              106.7285057,-6.474281,0
              106.7371755,-6.4878426,0
              106.7542569,-6.4983344,0
              106.7586989,-6.4996779,0
              106.7576478,-6.5167125,0
              106.7665322,-6.5289506,0
              106.7780319,-6.5558967,0
              106.7929657,-6.5610132,0
              106.8173401,-6.5651066,0
              106.8247216,-6.5689436,0
              106.8430894,-6.5632302,0
              106.8502986,-6.5442994,0
              106.8572546,-6.5240864,0
              106.8721061,-6.4864772,0
              106.888671,-6.452957,0
              106.8940344,-6.4425086,0
              106.8993973,-6.4115906,0
              106.8925919,-6.3865733,0
              106.8734278,-6.3833916,0
              106.8464323,-6.376686,0
              106.8201683,-6.3708859,0
              106.8078943,-6.3664502,0
              106.7956205,-6.3661087,0
              106.7881535,-6.357834,0
              106.8005992,-6.3393229,0
              106.8054914,-6.3266124,0
              106.80901,-6.3152666,0
              106.794979,-6.3139668,0
              106.7857547,-6.3065244,0
              106.7761454,-6.3068616,0
            </coordinates>
          </LinearRing>
        </outerBoundaryIs>
      </Polygon>
    </Placemark>
  </Document>
</kml>
