<?xml version="1.0" encoding="UTF-8"?>
<kml xmlns="http://www.opengis.net/kml/2.2">
  <Document>
    <name>Indonesia-1</name>
    <description/>
    <Style id="icon-1899-0288D1-nodesc-normal">
      <IconStyle>
        <color>ffd18802</color>
        <scale>1</scale>
        <Icon>
          <href>https://www.gstatic.com/mapspro/images/stock/503-wht-blank_maps.png</href>
        </Icon>
        <hotSpot x="32" xunits="pixels" y="64" yunits="insetPixels"/>
      </IconStyle>
      <LabelStyle>
        <scale>0</scale>
      </LabelStyle>
      <BalloonStyle>
        <text><![CDATA[<h3>$[name]</h3>]]></text>
      </BalloonStyle>
    </Style>
    <Style id="icon-1899-0288D1-nodesc-highlight">
      <IconStyle>
        <color>ffd18802</color>
        <scale>1</scale>
        <Icon>
          <href>https://www.gstatic.com/mapspro/images/stock/503-wht-blank_maps.png</href>
        </Icon>
        <hotSpot x="32" xunits="pixels" y="64" yunits="insetPixels"/>
      </IconStyle>
      <LabelStyle>
        <scale>1</scale>
      </LabelStyle>
      <BalloonStyle>
        <text><![CDATA[<h3>$[name]</h3>]]></text>
      </BalloonStyle>
    </Style>
    <StyleMap id="icon-1899-0288D1-nodesc">
      <Pair>
        <key>normal</key>
        <styleUrl>#icon-1899-0288D1-nodesc-normal</styleUrl>
      </Pair>
      <Pair>
        <key>highlight</key>
        <styleUrl>#icon-1899-0288D1-nodesc-highlight</styleUrl>
      </Pair>
    </StyleMap>
    <Style id="poly-000000-1200-77-nodesc-normal">
      <LineStyle>
        <color>ff000000</color>
        <width>1.2</width>
      </LineStyle>
      <PolyStyle>
        <color>4d000000</color>
        <fill>1</fill>
        <outline>1</outline>
      </PolyStyle>
      <BalloonStyle>
        <text><![CDATA[<h3>$[name]</h3>]]></text>
      </BalloonStyle>
    </Style>
    <Style id="poly-000000-1200-77-nodesc-highlight">
      <LineStyle>
        <color>ff000000</color>
        <width>1.8</width>
      </LineStyle>
      <PolyStyle>
        <color>4d000000</color>
        <fill>1</fill>
        <outline>1</outline>
      </PolyStyle>
      <BalloonStyle>
        <text><![CDATA[<h3>$[name]</h3>]]></text>
      </BalloonStyle>
    </Style>
    <StyleMap id="poly-000000-1200-77-nodesc">
      <Pair>
        <key>normal</key>
        <styleUrl>#poly-000000-1200-77-nodesc-normal</styleUrl>
      </Pair>
      <Pair>
        <key>highlight</key>
        <styleUrl>#poly-000000-1200-77-nodesc-highlight</styleUrl>
      </Pair>
    </StyleMap>
    <Folder>
      <name>Kota DKI Jakarta</name>
      <Placemark>
        <name>Jakarta</name>
        <styleUrl>#icon-1899-0288D1-nodesc</styleUrl>
        <Point>
          <coordinates>
            106.8229198,-6.1944491,0
          </coordinates>
        </Point>
      </Placemark>
      <Placemark>
        <name>jakarta</name>
        <styleUrl>#poly-000000-1200-77-nodesc</styleUrl>
        <Polygon>
          <outerBoundaryIs>
            <LinearRing>
              <tessellate>1</tessellate>
              <coordinates>
                106.7262693,-6.0893174,0
                106.7118497,-6.0954623,0
                106.6854139,-6.0961451,0
                106.6888471,-6.1067278,0
                106.6984601,-6.1108243,0
                106.6891904,-6.1149207,0
                106.6864438,-6.1292581,0
                106.691937,-6.1374506,0
                106.6867871,-6.1463258,0
                106.6895337,-6.172609,0
                106.7166562,-6.1862621,0
                106.7166562,-6.1927473,0
                106.724896,-6.1920646,0
                106.7235227,-6.208789,0
                106.7163129,-6.2241477,0
                106.7403455,-6.2258542,0
                106.7492719,-6.2422362,0
                106.7448087,-6.2517922,0
                106.7516751,-6.2504271,0
                106.7520185,-6.2630543,0
                106.7599149,-6.2599829,0
                106.7509885,-6.2709036,0
                106.757855,-6.2784114,0
                106.7798276,-6.3179965,0
                106.7698713,-6.3572373,0
                106.7805143,-6.3159491,0
                106.80901,-6.3152666,0
                106.7928739,-6.3579197,0
                106.7956205,-6.3661087,0
                106.8114133,-6.3626967,0
                106.8203397,-6.35519,0
                106.8351026,-6.35519,0
                106.8412824,-6.3429062,0
                106.852612,-6.3357405,0
                106.852612,-6.3449536,0
                106.8608518,-6.3568961,0
                106.8728681,-6.3510955,0
                106.8718381,-6.3626967,0
                106.8831678,-6.3596258,0
                106.8756147,-6.3640615,0
                106.8862577,-6.3695208,0
                106.9003339,-6.369862,0
                106.9061704,-6.359967,0
                106.9154401,-6.3661087,0
                106.9219632,-6.3115129,0
                106.9219632,-6.3012756,0
                106.9102903,-6.2930856,0
                106.9085736,-6.2726099,0
                106.9037671,-6.2623718,0
                106.9099469,-6.2548637,0
                106.9157834,-6.2593003,0
                106.9205899,-6.2504271,0
                106.9260831,-6.2555463,0
                106.9442792,-6.2521335,0
                106.9446225,-6.236093,0
                106.9518323,-6.2183456,0
                106.9669385,-6.2077651,0
                106.9679685,-6.1954778,0
                106.972775,-6.1825076,0
                106.9696851,-6.0995589,0
                106.9672818,-6.0213774,0
                106.9655652,-5.9867213,0
                106.7252393,-5.9867213,0
                106.7262693,-6.0893174,0
              </coordinates>
            </LinearRing>
          </outerBoundaryIs>
        </Polygon>
      </Placemark>
    </Folder>
    <Folder>
      <name>DIY Yogyakarta</name>
      <Placemark>
        <name>Poligon 1</name>
        <styleUrl>#poly-000000-1200-77-nodesc</styleUrl>
        <Polygon>
          <outerBoundaryIs>
            <LinearRing>
              <tessellate>1</tessellate>
              <coordinates>
                110.342442,-7.743873,0
                110.330769,-7.774149,0
                110.3314557,-7.7942184,0
                110.3259625,-7.7989805,0
                110.3235592,-7.8204092,0
                110.3311123,-7.8255111,0
                110.3554883,-7.8272117,0
                110.3620114,-7.8353746,0
                110.3877606,-7.8357148,0
                110.4066434,-7.8384357,0
                110.4107632,-7.8238105,0
                110.4090466,-7.8071439,0
                110.4097333,-7.7819728,0
                110.4289593,-7.7840137,0
                110.4313626,-7.7673456,0
                110.4004635,-7.7574805,0
                110.3915372,-7.7605421,0
                110.3781476,-7.7513572,0
                110.342442,-7.743873,0
              </coordinates>
            </LinearRing>
          </outerBoundaryIs>
        </Polygon>
      </Placemark>
    </Folder>
    <Folder>
      <name>Depok</name>
      <Placemark>
        <name>Depok</name>
        <styleUrl>#icon-1899-0288D1-nodesc</styleUrl>
        <Point>
          <coordinates>
            106.7942405,-6.4024844,0
          </coordinates>
        </Point>
      </Placemark>
      <Placemark>
        <name>Poligon 4</name>
        <styleUrl>#poly-000000-1200-77-nodesc</styleUrl>
        <Polygon>
          <outerBoundaryIs>
            <LinearRing>
              <tessellate>1</tessellate>
              <coordinates>
                106.7761454,-6.3068616,0
                106.7786776,-6.325838,0
                106.7698713,-6.3572373,0
                106.7643436,-6.3559435,0
                106.7495375,-6.3411396,0
                106.7456535,-6.3702479,0
                106.745546,-6.3853661,0
                106.7406317,-6.4038959,0
                106.7350306,-6.4094608,0
                106.7318966,-6.4246847,0
                106.7347927,-6.4340025,0
                106.7310909,-6.4458257,0
                106.729449,-6.4583312,0
                106.7285057,-6.474281,0
                106.7371755,-6.4878426,0
                106.7542569,-6.4983344,0
                106.7586989,-6.4996779,0
                106.7576478,-6.5167125,0
                106.7665322,-6.5289506,0
                106.7780319,-6.5558967,0
                106.7929657,-6.5610132,0
                106.8173401,-6.5651066,0
                106.8247216,-6.5689436,0
                106.8430894,-6.5632302,0
                106.8502986,-6.5442994,0
                106.8572546,-6.5240864,0
                106.8721061,-6.4864772,0
                106.888671,-6.452957,0
                106.8940344,-6.4425086,0
                106.8993973,-6.4115906,0
                106.8925919,-6.3865733,0
                106.8734278,-6.3833916,0
                106.8464323,-6.376686,0
                106.8201683,-6.3708859,0
                106.8078943,-6.3664502,0
                106.7956205,-6.3661087,0
                106.7881535,-6.357834,0
                106.8005992,-6.3393229,0
                106.8054914,-6.3266124,0
                106.80901,-6.3152666,0
                106.794979,-6.3139668,0
                106.7857547,-6.3065244,0
                106.7761454,-6.3068616,0
              </coordinates>
            </LinearRing>
          </outerBoundaryIs>
        </Polygon>
      </Placemark>
    </Folder>
  </Document>
</kml>
