<?xml version="1.0" encoding="UTF-8"?>
<kml xmlns="http://www.opengis.net/kml/2.2">
  <Document>
    <name>Kota DKI Jakarta</name>
    <Style id="icon-1899-0288D1-nodesc-normal">
      <IconStyle>
        <color>ffd18802</color>
        <scale>1</scale>
        <Icon>
          <href>https://www.gstatic.com/mapspro/images/stock/503-wht-blank_maps.png</href>
        </Icon>
        <hotSpot x="32" xunits="pixels" y="64" yunits="insetPixels"/>
      </IconStyle>
      <LabelStyle>
        <scale>0</scale>
      </LabelStyle>
      <BalloonStyle>
        <text><![CDATA[<h3>$[name]</h3>]]></text>
      </BalloonStyle>
    </Style>
    <Style id="icon-1899-0288D1-nodesc-highlight">
      <IconStyle>
        <color>ffd18802</color>
        <scale>1</scale>
        <Icon>
          <href>https://www.gstatic.com/mapspro/images/stock/503-wht-blank_maps.png</href>
        </Icon>
        <hotSpot x="32" xunits="pixels" y="64" yunits="insetPixels"/>
      </IconStyle>
      <LabelStyle>
        <scale>1</scale>
      </LabelStyle>
      <BalloonStyle>
        <text><![CDATA[<h3>$[name]</h3>]]></text>
      </BalloonStyle>
    </Style>
    <StyleMap id="icon-1899-0288D1-nodesc">
      <Pair>
        <key>normal</key>
        <styleUrl>#icon-1899-0288D1-nodesc-normal</styleUrl>
      </Pair>
      <Pair>
        <key>highlight</key>
        <styleUrl>#icon-1899-0288D1-nodesc-highlight</styleUrl>
      </Pair>
    </StyleMap>
    <Style id="poly-000000-1200-77-nodesc-normal">
      <LineStyle>
        <color>ff000000</color>
        <width>1.2</width>
      </LineStyle>
      <PolyStyle>
        <color>4d000000</color>
        <fill>1</fill>
        <outline>1</outline>
      </PolyStyle>
      <BalloonStyle>
        <text><![CDATA[<h3>$[name]</h3>]]></text>
      </BalloonStyle>
    </Style>
    <Style id="poly-000000-1200-77-nodesc-highlight">
      <LineStyle>
        <color>ff000000</color>
        <width>1.8</width>
      </LineStyle>
      <PolyStyle>
        <color>4d000000</color>
        <fill>1</fill>
        <outline>1</outline>
      </PolyStyle>
      <BalloonStyle>
        <text><![CDATA[<h3>$[name]</h3>]]></text>
      </BalloonStyle>
    </Style>
    <StyleMap id="poly-000000-1200-77-nodesc">
      <Pair>
        <key>normal</key>
        <styleUrl>#poly-000000-1200-77-nodesc-normal</styleUrl>
      </Pair>
      <Pair>
        <key>highlight</key>
        <styleUrl>#poly-000000-1200-77-nodesc-highlight</styleUrl>
      </Pair>
    </StyleMap>
    <Placemark>
      <name>Jakarta</name>
      <styleUrl>#icon-1899-0288D1-nodesc</styleUrl>
      <Point>
        <coordinates>
          106.8229198,-6.1944491,0
        </coordinates>
      </Point>
    </Placemark>
    <Placemark>
      <name>jakarta</name>
      <styleUrl>#poly-000000-1200-77-nodesc</styleUrl>
      <Polygon>
        <outerBoundaryIs>
          <LinearRing>
            <tessellate>1</tessellate>
            <coordinates>
              106.7262693,-6.0893174,0
              106.7118497,-6.0954623,0
              106.6854139,-6.0961451,0
              106.6888471,-6.1067278,0
              106.6984601,-6.1108243,0
              106.6891904,-6.1149207,0
              106.6864438,-6.1292581,0
              106.691937,-6.1374506,0
              106.6867871,-6.1463258,0
              106.6895337,-6.172609,0
              106.7166562,-6.1862621,0
              106.7166562,-6.1927473,0
              106.724896,-6.1920646,0
              106.7235227,-6.208789,0
              106.7163129,-6.2241477,0
              106.7403455,-6.2258542,0
              106.7492719,-6.2422362,0
              106.7448087,-6.2517922,0
              106.7516751,-6.2504271,0
              106.7520185,-6.2630543,0
              106.7599149,-6.2599829,0
              106.7509885,-6.2709036,0
              106.757855,-6.2784114,0
              106.7798276,-6.3179965,0
              106.7698713,-6.3572373,0
              106.7805143,-6.3159491,0
              106.80901,-6.3152666,0
              106.7928739,-6.3579197,0
              106.7956205,-6.3661087,0
              106.8114133,-6.3626967,0
              106.8203397,-6.35519,0
              106.8351026,-6.35519,0
              106.8412824,-6.3429062,0
              106.852612,-6.3357405,0
              106.852612,-6.3449536,0
              106.8608518,-6.3568961,0
              106.8728681,-6.3510955,0
              106.8718381,-6.3626967,0
              106.8831678,-6.3596258,0
              106.8756147,-6.3640615,0
              106.8862577,-6.3695208,0
              106.9003339,-6.369862,0
              106.9061704,-6.359967,0
              106.9154401,-6.3661087,0
              106.9219632,-6.3115129,0
              106.9219632,-6.3012756,0
              106.9102903,-6.2930856,0
              106.9085736,-6.2726099,0
              106.9037671,-6.2623718,0
              106.9099469,-6.2548637,0
              106.9157834,-6.2593003,0
              106.9205899,-6.2504271,0
              106.9260831,-6.2555463,0
              106.9442792,-6.2521335,0
              106.9446225,-6.236093,0
              106.9518323,-6.2183456,0
              106.9669385,-6.2077651,0
              106.9679685,-6.1954778,0
              106.972775,-6.1825076,0
              106.9696851,-6.0995589,0
              106.9672818,-6.0213774,0
              106.9655652,-5.9867213,0
              106.7252393,-5.9867213,0
              106.7262693,-6.0893174,0
            </coordinates>
          </LinearRing>
        </outerBoundaryIs>
      </Polygon>
    </Placemark>
  </Document>
</kml>
