<?xml version="1.0" encoding="UTF-8"?>
<kml xmlns="http://www.opengis.net/kml/2.2">
  <Document>
    <name>Taman Kota Jakarta</name>
    <description/>
    <Style id="icon-1899-0288D1-nodesc-normal">
      <IconStyle>
        <color>ffd18802</color>
        <scale>1</scale>
        <Icon>
          <href>https://www.gstatic.com/mapspro/images/stock/503-wht-blank_maps.png</href>
        </Icon>
        <hotSpot x="32" xunits="pixels" y="64" yunits="insetPixels"/>
      </IconStyle>
      <LabelStyle>
        <scale>0</scale>
      </LabelStyle>
      <BalloonStyle>
        <text><![CDATA[<h3>$[name]</h3>]]></text>
      </BalloonStyle>
    </Style>
    <Style id="icon-1899-0288D1-nodesc-highlight">
      <IconStyle>
        <color>ffd18802</color>
        <scale>1</scale>
        <Icon>
          <href>https://www.gstatic.com/mapspro/images/stock/503-wht-blank_maps.png</href>
        </Icon>
        <hotSpot x="32" xunits="pixels" y="64" yunits="insetPixels"/>
      </IconStyle>
      <LabelStyle>
        <scale>1</scale>
      </LabelStyle>
      <BalloonStyle>
        <text><![CDATA[<h3>$[name]</h3>]]></text>
      </BalloonStyle>
    </Style>
    <StyleMap id="icon-1899-0288D1-nodesc">
      <Pair>
        <key>normal</key>
        <styleUrl>#icon-1899-0288D1-nodesc-normal</styleUrl>
      </Pair>
      <Pair>
        <key>highlight</key>
        <styleUrl>#icon-1899-0288D1-nodesc-highlight</styleUrl>
      </Pair>
    </StyleMap>
    <Style id="poly-000000-1200-77-nodesc-normal">
      <LineStyle>
        <color>ff000000</color>
        <width>1.2</width>
      </LineStyle>
      <PolyStyle>
        <color>4d000000</color>
        <fill>1</fill>
        <outline>1</outline>
      </PolyStyle>
      <BalloonStyle>
        <text><![CDATA[<h3>$[name]</h3>]]></text>
      </BalloonStyle>
    </Style>
    <Style id="poly-000000-1200-77-nodesc-highlight">
      <LineStyle>
        <color>ff000000</color>
        <width>1.8</width>
      </LineStyle>
      <PolyStyle>
        <color>4d000000</color>
        <fill>1</fill>
        <outline>1</outline>
      </PolyStyle>
      <BalloonStyle>
        <text><![CDATA[<h3>$[name]</h3>]]></text>
      </BalloonStyle>
    </Style>
    <StyleMap id="poly-000000-1200-77-nodesc">
      <Pair>
        <key>normal</key>
        <styleUrl>#poly-000000-1200-77-nodesc-normal</styleUrl>
      </Pair>
      <Pair>
        <key>highlight</key>
        <styleUrl>#poly-000000-1200-77-nodesc-highlight</styleUrl>
      </Pair>
    </StyleMap>
    <Folder>
      <name>Tebet Echo Park</name>
      <Placemark>
        <name>Tebet Eco Park</name>
        <styleUrl>#icon-1899-0288D1-nodesc</styleUrl>
        <Point>
          <coordinates>
            106.8529248,-6.2373489,0
          </coordinates>
        </Point>
      </Placemark>
      <Placemark>
        <name>Polygon 3</name>
        <styleUrl>#poly-000000-1200-77-nodesc</styleUrl>
        <Polygon>
          <outerBoundaryIs>
            <LinearRing>
              <tessellate>1</tessellate>
              <coordinates>
                106.850815,-6.2328481,0
                106.8505145,-6.2341066,0
                106.8525745,-6.2357491,0
                106.8526389,-6.236325,0
                106.8516303,-6.2398019,0
                106.8527676,-6.2422549,0
                106.8540121,-6.2421909,0
                106.8530465,-6.2403992,0
                106.8531968,-6.2386927,0
                106.8537117,-6.236709,0
                106.8533684,-6.2346186,0
                106.8528534,-6.2347252,0
                106.8526174,-6.2332747,0
                106.8514372,-6.2335307,0
                106.8513729,-6.2329334,0
                106.850815,-6.2328481,0
              </coordinates>
            </LinearRing>
          </outerBoundaryIs>
        </Polygon>
      </Placemark>
    </Folder>
    <Folder>
      <name>Gelora BUng Karno</name>
      <Placemark>
        <name>Polygon 1</name>
        <styleUrl>#poly-000000-1200-77-nodesc</styleUrl>
        <Polygon>
          <outerBoundaryIs>
            <LinearRing>
              <tessellate>1</tessellate>
              <coordinates>
                106.8013349,-6.217502,0
                106.8011633,-6.217982,0
                106.801056,-6.2188246,0
                106.8012276,-6.2194539,0
                106.8017963,-6.2201791,0
                106.8024293,-6.2204351,0
                106.803073,-6.2203818,0
                106.8036846,-6.2200085,0
                106.8040708,-6.2192939,0
                106.8042103,-6.218142,0
                106.8038669,-6.2173314,0
                106.8031481,-6.2167981,0
                106.8026224,-6.2167874,0
                106.8018714,-6.2169474,0
                106.8013349,-6.217502,0
              </coordinates>
            </LinearRing>
          </outerBoundaryIs>
        </Polygon>
      </Placemark>
      <Placemark>
        <name>Gelora Bung Karno Main Stadium</name>
        <styleUrl>#icon-1899-0288D1-nodesc</styleUrl>
        <Point>
          <coordinates>
            106.8029661,-6.2186006,0
          </coordinates>
        </Point>
      </Placemark>
    </Folder>
    <Folder>
      <name>Kebun Binatang Ragunan</name>
      <Placemark>
        <name>Kebun Binatang Ragunan</name>
        <styleUrl>#icon-1899-0288D1-nodesc</styleUrl>
        <Point>
          <coordinates>
            106.8261918,-6.3093978,0
          </coordinates>
        </Point>
      </Placemark>
      <Placemark>
        <name>Polygon 3</name>
        <styleUrl>#poly-000000-1200-77-nodesc</styleUrl>
        <Polygon>
          <outerBoundaryIs>
            <LinearRing>
              <tessellate>1</tessellate>
              <coordinates>
                106.8164132,-6.304903,0
                106.8168424,-6.3071637,0
                106.8159412,-6.3078035,0
                106.8155979,-6.3104055,0
                106.816542,-6.3104482,0
                106.817572,-6.3113866,0
                106.8176578,-6.3143298,0
                106.8161987,-6.3139459,0
                106.8161987,-6.3169744,0
                106.8247388,-6.3179981,0
                106.825683,-6.3118132,0
                106.8267129,-6.3117278,0
                106.8273137,-6.3086993,0
                106.8245672,-6.308614,0
                106.8245242,-6.3064386,0
                106.8206619,-6.3066518,0
                106.8207048,-6.3058414,0
                106.8164132,-6.304903,0
              </coordinates>
            </LinearRing>
          </outerBoundaryIs>
        </Polygon>
      </Placemark>
    </Folder>
    <Folder>
      <name>MOnas</name>
      <Placemark>
        <name>Monas</name>
        <styleUrl>#icon-1899-0288D1-nodesc</styleUrl>
        <Point>
          <coordinates>
            106.8271533,-6.1753917,0
          </coordinates>
        </Point>
      </Placemark>
      <Placemark>
        <name>Polygon 2</name>
        <styleUrl>#poly-000000-1200-77-nodesc</styleUrl>
        <Polygon>
          <outerBoundaryIs>
            <LinearRing>
              <tessellate>1</tessellate>
              <coordinates>
                106.8232549,-6.1715162,0
                106.8229545,-6.1797508,0
                106.823727,-6.1804761,0
                106.8308509,-6.1804335,0
                106.831323,-6.1795801,0
                106.8299068,-6.1778308,0
                106.8301643,-6.1739909,0
                106.8293918,-6.1732229,0
                106.8293489,-6.1723269,0
                106.8290914,-6.1713882,0
                106.8232549,-6.1715162,0
              </coordinates>
            </LinearRing>
          </outerBoundaryIs>
        </Polygon>
      </Placemark>
    </Folder>
    <Folder>
      <name>Taman MIni Indonesia</name>
      <Placemark>
        <name>Taman Mini Indonesia Indah</name>
        <styleUrl>#icon-1899-0288D1-nodesc</styleUrl>
        <Point>
          <coordinates>
            106.8893388,-6.3044926,0
          </coordinates>
        </Point>
      </Placemark>
      <Placemark>
        <name>Polygon 2</name>
        <styleUrl>#poly-000000-1200-77-nodesc</styleUrl>
        <Polygon>
          <outerBoundaryIs>
            <LinearRing>
              <tessellate>1</tessellate>
              <coordinates>
                106.8895765,-6.304055,0
                106.8896033,-6.3049668,0
                106.8903114,-6.3049775,0
                106.8906386,-6.3047109,0
                106.8906547,-6.3043003,0
                106.8904026,-6.303991,0
                106.8901987,-6.3039537,0
                106.8896891,-6.3039537,0
                106.8895765,-6.304055,0
              </coordinates>
            </LinearRing>
          </outerBoundaryIs>
        </Polygon>
      </Placemark>
    </Folder>
  </Document>
</kml>
